0 COSMOS 1624
1 15482U 85006A   13281.74937780  .00000069  00000-0  34924-4 0  3130
2 15482 074.0454 018.5409 0015637 312.1478 162.0172 14.32614378500633
0 COSMOS 1624
1 15482U 85006A   13282.80257874  .00000070  00000-0  35265-4 0  3149
2 15482 074.0455 016.6190 0015684 310.0559 193.7217 14.32614877500780
0 COSMOS 1624
1 15482U 85006A   13283.84746259  .00000096  00000-0  44998-4 0  3156
2 15482 074.0455 014.7123 0015689 308.0692 182.4442 14.32615158500930
0 COSMOS 1624
1 15482U 85006A   13285.51679461  .00000076  00000-0  37377-4 0  3164
2 15482 074.0455 011.6663 0015722 304.8626 151.6352 14.32615609501170
0 COSMOS 1624
1 15482U 85006A   13286.78203324  .00000122  00000-0  54490-4 0  3173
2 15482 074.0454 009.3576 0015726 302.4412 196.8026 14.32615554501355
0 COSMOS 1624
1 15482U 85006A   13287.82953583  .00000172  00000-0  73024-4 0  3188
2 15482 074.0451 007.4461 0015754 300.4195 199.0641 14.32615960501507
0 COSMOS 1624
1 15482U 85006A   13288.87319046  .00000142  00000-0  61679-4 0  3195
2 15482 074.0450 005.5418 0015816 298.3932 181.4936 14.32616341501652
0 COSMOS 1624
1 15482U 85006A   13290.18933721  .00000109  00000-0  49570-4 0  3205
2 15482 074.0447 003.1401 0015813 295.8566 129.2268 14.32617168501843
0 COSMOS 1624
1 15482U 85006A   13291.52285662  .00000125  00000-0  55746-4 0  3219
2 15482 074.0444 000.7065 0015856 293.2756 166.5727 14.32617461502031
0 COSMOS 1624
1 15482U 85006A   13292.78677694  .00000140  00000-0  61087-4 0  3221
2 15482 074.0442 358.4000 0015827 290.8737 204.9314 14.32617840502211
0 COSMOS 1624
1 15482U 85006A   13294.16325215  .00000105  00000-0  48284-4 0  3230
2 15482 074.0441 355.8881 0015825 288.2138 103.8085 14.32618681502410
0 COSMOS 1624
1 15482U 85006A   13295.50307749  .00000112  00000-0  50898-4 0  3244
2 15482 074.0441 353.4430 0015874 285.6494 173.6535 14.32618990502603
